OBJECT_NAME,OBJECT_ID,EPOCH,MEAN_MOTION,ECCENTRICITY,INCLINATION,RA_OF_ASC_NODE,ARG_OF_PERICENTER,MEAN_ANOMALY,EPHEMERIS_TYPE,CLASSIFICATION_TYPE,NORAD_CAT_ID,ELEMENT_SET_NO,REV_AT_EPOCH,BSTAR,MEAN_MOTION_DOT,MEAN_MOTION_DDOT
SL-8 R/B,1985-006B,2026-07-22T20:43:36.921792,14.37848506,.00192246,74.0459,12.4080,254.4346,249.4065,0,U,15483,999,17345,.88106712E-4,.24E-5,0
SL-12 R/B(2),1985-042D,2026-07-22T08:15:13.813632,14.22012145,.00373774,71.1075,163.2382,275.6970,194.2128,0,U,15772,999,13353,.21877262E-4,.1E-7,0
SL-14 R/B,1985-069B,2026-07-22T13:48:55.803168,14.86538412,.00203254,82.5252,258.0848,104.5539,255.7934,0,U,15945,999,19287,.27613483E-4,.27E-5,0
SL-16 R/B,1985-097B,2026-07-22T10:47:46.386816,14.16616359,.00059474,71.0007,216.8387,36.7357,113.4506,0,U,16182,999,10631,.99494709E-4,.151E-5,0
SL-14 R/B,1986-006B,2026-07-22T07:30:59.292864,14.86972076,.00760877,82.5286,133.0604,185.1099,174.9352,0,U,16496,999,16921,.3345455E-4,.343E-5,0
COSMOS 1743,1986-034A,2026-07-22T16:18:08.049312,15.70262690,.00055135,82.5264,290.9041,154.1747,205.9792,0,U,16719,999,20135,.48341662E-3,.59006E-3,0
SL-14 R/B,1986-046B,2026-07-22T13:54:23.889888,14.85694500,.00241165,82.4841,312.7348,139.4182,220.8838,0,U,16792,999,14643,.36240182E-4,.341E-5,0
SL-14 R/B,1986-055B,2026-07-22T16:43:10.171200,14.85743859,.00174921,82.5211,359.7429,243.3208,132.4032,0,U,16882,999,13941,.34547613E-4,.325E-5,0
AJISAI (EGS),1986-061A,2026-07-22T21:19:17.345280,12.44516686,.00110762,50.0105,37.6149,271.5310,231.2921,0,U,16908,999,48483,-.12576643E-4,-.99E-6,0
SL-14 R/B,1987-024B,2026-07-22T18:22:43.998528,14.86235890,.0018519,82.5305,325.8095,168.6627,191.5011,0,U,17567,999,10819,.37349312E-4,.354E-5,0
COSMOS 1833,1987-027A,2026-07-22T20:33:48.352896,14.13067858,.002481,70.9214,41.8963,356.4967,3.5977,0,U,17589,999,2941,.14865038E-4,-.2E-6,0
SL-16 R/B,1987-027B,2026-07-22T18:58:19.357248,14.17176447,.00072717,71.0043,351.7996,273.8330,86.1963,0,U,17590,999,3448,.59479323E-4,.72E-6,0
SL-14 R/B,1987-038B,2026-07-22T21:32:39.965856,14.85465577,.00208326,82.5021,169.4356,78.6587,281.6968,0,U,17912,999,9930,.41820244E-4,.387E-5,0
COSMOS 1844,1987-041A,2026-07-22T17:55:21.277056,14.14581179,.00308195,70.9000,109.3025,184.3365,175.7495,0,U,17973,999,2268,-.34435713E-4,-.115E-5,0
SL-14 R/B,1987-055B,2026-07-22T18:47:58.200000,14.85730130,.0019064,82.4968,221.6707,288.1913,71.7228,0,U,18153,999,8999,.29149294E-4,.278E-5,0
COSMOS 1867,1987-060A,2026-07-22T16:37:03.038592,14.31519025,.00173281,65.0112,288.6243,281.9530,77.9611,0,U,18187,999,3926,.8730166E-5,-.77E-6,0
SL-14 R/B,1988-001B,2026-07-22T14:03:33.589152,14.85629967,.00187824,82.5114,68.4675,148.0344,212.2016,0,U,18749,999,6205,.29173725E-4,.278E-5,0
COSMOS 1933,1988-020A,2026-07-22T17:53:52.543392,15.18925297,.0005959,82.5136,117.2197,88.8842,271.3075,0,U,18958,999,7072,.13888339E-3,.2931E-4,0
SL-3 R/B,1988-032B,2026-07-22T21:37:48.302400,15.21074603,.0027068,97.5281,186.9161,120.1761,240.2161,0,U,19046,999,7265,.20584897E-3,.4547E-4,0
SL-16 R/B,1988-039B,2026-07-22T06:45:15.564960,14.19632199,.0020263,71.0148,143.9518,137.8094,222.4595,0,U,19120,999,97748,.12005017E-4,-.23E-6,0
COSMOS 1953,1988-050A,2026-07-22T22:03:45.510336,15.30414186,.00108106,82.5070,21.9843,14.1095,346.0446,0,U,19210,999,5845,.26353586E-3,.7795E-4,0
SL-8 R/B,1988-053B,2026-07-22T11:34:42.638880,14.38980421,.00200096,74.0451,223.9952,7.3850,160.5842,0,U,19257,999,99598,.56274536E-4,.148E-5,0
COSMOS 1975,1988-093A,2026-07-22T19:24:40.599936,15.29739507,.00121721,82.5204,341.8577,58.5246,301.7182,0,U,19573,999,4005,.27665708E-3,.8018E-4,0
SL-14 R/B,1988-093B,2026-07-22T17:11:54.978720,14.85763223,.00194423,82.5307,275.2912,314.3176,208.8068,0,U,19574,999,2106,.27595851E-4,.265E-5,0
SL-16 R/B,1988-102B,2026-07-22T19:36:14.512032,14.16168629,.00138437,70.9972,227.1694,173.7826,186.3471,0,U,19650,999,94602,.14935453E-3,.248E-5,0
INTERCOSMOS 24,1989-080A,2026-07-22T10:29:08.956608,12.59694218,.11868502,82.6059,16.6991,340.1334,15.6985,0,U,20261,999,68376,.68411041E-4,.241E-5,0
SL-14 R/B,1989-080C,2026-07-22T22:09:29.235456,12.50579624,.12290044,82.5923,86.3454,235.6119,112.2746,0,U,20262,999,67705,.28388519E-4,.99E-6,0
DELTA 1 R/B,1989-089B,2026-07-22T02:51:40.102560,14.50750696,.00704558,97.0639,29.0877,58.5535,302.2526,0,U,20323,999,91522,.63572018E-4,.223E-5,0
ARIANE 40 R/B,1990-005H,2026-07-22T21:36:41.088384,14.39943327,.00107717,98.2937,260.4022,151.9722,208.2049,0,U,20443,999,91226,.63426373E-4,.157E-5,0
DELTA 2 R/B(1),1990-008B,2026-07-22T12:06:43.937280,15.74987263,.00552819,35.6009,358.3366,85.6554,275.0502,0,U,20453,999,94726,.72436855E-3,.125068E-2,0
