SL-8 R/B                
1 15483U 85006B   26203.86362178  .00000240  00000+0  88107-4 0  9997
2 15483  74.0459  12.4080 0019224 254.4346 249.4065 14.37848506173459
SL-12 R/B(2)            
1 15772U 85042D   26203.34390988  .00000001  00000+0  21877-4 0  9997
2 15772  71.1075 163.2382 0037377 275.6970 194.2128 14.22012145133537
SL-14 R/B               
1 15945U 85069B   26203.57564587  .00000270  00000+0  27613-4 0  9993
2 15945  82.5252 258.0848 0020325 104.5539 255.7934 14.86538412192878
SL-16 R/B               
1 16182U 85097B   26203.44984244  .00000151  00000+0  99495-4 0  9995
2 16182  71.0007 216.8387 0005947  36.7357 113.4506 14.16616359106319
SL-14 R/B               
1 16496U 86006B   26203.31318626  .00000343  00000+0  33455-4 0  9992
2 16496  82.5286 133.0604 0076087 185.1099 174.9352 14.86972076169217
COSMOS 1743             
1 16719U 86034A   26203.67925983  .00059006  00000+0  48342-3 0  9990
2 16719  82.5264 290.9041 0005513 154.1747 205.9792 15.70262690201354
SL-14 R/B               
1 16792U 86046B   26203.57944317  .00000341  00000+0  36240-4 0  9998
2 16792  82.4841 312.7348 0024116 139.4182 220.8838 14.85694500146435
SL-14 R/B               
1 16882U 86055B   26203.69664550  .00000325  00000+0  34548-4 0  9990
2 16882  82.5211 359.7429 0017492 243.3208 132.4032 14.85743859139417
AJISAI (EGS)            
1 16908U 86061A   26203.88839520 -.00000099  00000+0 -12577-4 0  9996
2 16908  50.0105  37.6149 0011076 271.5310 231.2921 12.44516686484831
SL-14 R/B               
1 17567U 87024B   26203.76578702  .00000354  00000+0  37349-4 0  9993
2 17567  82.5305 325.8095 0018519 168.6627 191.5011 14.86235890108196
COSMOS 1833             
1 17589U 87027A   26203.85680964 -.00000020  00000+0  14865-4 0  9993
2 17589  70.9214  41.8963 0024810 356.4967   3.5977 14.13067858 29411
SL-16 R/B               
1 17590U 87027B   26203.79050182  .00000072  00000+0  59479-4 0  9997
2 17590  71.0043 351.7996 0007271 273.8330  86.1963 14.17176447 34486
SL-14 R/B               
1 17912U 87038B   26203.89768479  .00000387  00000+0  41820-4 0  9993
2 17912  82.5021 169.4356 0020832  78.6587 281.6968 14.85465577 99303
COSMOS 1844             
1 17973U 87041A   26203.74677404 -.00000115  00000+0 -34436-4 0  9991
2 17973  70.9000 109.3025 0030819 184.3365 175.7495 14.14581179 22683
SL-14 R/B               
1 18153U 87055B   26203.78331250  .00000278  00000+0  29149-4 0  9990
2 18153  82.4968 221.6707 0019064 288.1913  71.7228 14.85730130 89998
COSMOS 1867             
1 18187U 87060A   26203.69239628 -.00000077  00000+0  87302-5 0  9993
2 18187  65.0112 288.6243 0017328 281.9530  77.9611 14.31519025 39266
SL-14 R/B               
1 18749U 88001B   26203.58580543  .00000278  00000+0  29174-4 0  9990
2 18749  82.5114  68.4675 0018782 148.0344 212.2016 14.85629967 62052
COSMOS 1933             
1 18958U 88020A   26203.74574703  .00002931  00000+0  13888-3 0  9994
2 18958  82.5136 117.2197 0005959  88.8842 271.3075 15.18925297 70722
SL-3 R/B                
1 19046U 88032B   26203.90125350  .00004547  00000+0  20585-3 0  9991
2 19046  97.5281 186.9161 0027068 120.1761 240.2161 15.21074603 72652
SL-16 R/B               
1 19120U 88039B   26203.28143015 -.00000023  00000+0  12005-4 0  9995
2 19120  71.0148 143.9518 0020263 137.8094 222.4595 14.19632199977481
COSMOS 1953             
1 19210U 88050A   26203.91927674  .00007795  00000+0  26354-3 0  9992
2 19210  82.5070  21.9843 0010810  14.1095 346.0446 15.30414186 58456
SL-8 R/B                
1 19257U 88053B   26203.48243795  .00000148  00000+0  56275-4 0  9994
2 19257  74.0451 223.9952 0020009   7.3850 160.5842 14.38980421995989
COSMOS 1975             
1 19573U 88093A   26203.80880324  .00008018  00000+0  27666-3 0  9995
2 19573  82.5204 341.8577 0012172  58.5246 301.7182 15.29739507 40055
SL-14 R/B               
1 19574U 88093B   26203.71660855  .00000265  00000+0  27596-4 0  9990
2 19574  82.5307 275.2912 0019442 314.3176 208.8068 14.85763223 21068
SL-16 R/B               
1 19650U 88102B   26203.81683463  .00000248  00000+0  14935-3 0  9990
2 19650  70.9972 227.1694 0013843 173.7826 186.3471 14.16168629946026
INTERCOSMOS 24          
1 20261U 89080A   26203.43690922  .00000241  00000+0  68411-4 0  9994
2 20261  82.6059  16.6991 1186850 340.1334  15.6985 12.59694218683763
SL-14 R/B               
1 20262U 89080C   26203.92325504  .00000099  00000+0  28389-4 0  9991
2 20262  82.5923  86.3454 1229004 235.6119 112.2746 12.50579624677057
DELTA 1 R/B             
1 20323U 89089B   26203.11921415  .00000223  00000+0  63572-4 0  9994
2 20323  97.0639  29.0877 0070455  58.5535 302.2526 14.50750696915223
ARIANE 40 R/B           
1 20443U 90005H   26203.90047556  .00000157  00000+0  63426-4 0  9993
2 20443  98.2937 260.4022 0010771 151.9722 208.2049 14.39943327912262
DELTA 2 R/B(1)          
1 20453U 90008B   26203.50467520  .00125068  00000+0  72437-3 0  9990
2 20453  35.6009 358.3366 0055281  85.6554 275.0502 15.74987263947268
